start=new Date('2021-11-27T00:00:00.000Z').valueOf();
sats=[{"OBJECT_ID":"2021-036Z","REV_AT_EPOCH":"3260","DECAY_DATE":null,"MEAN_MOTION":"15.06397511","OBJECT_NAME":"STARLINK-2557","TLE_LINE2":"2 48299  53.0575 262.1504 0001920  68.4485 291.6708 15.06397511 32608","RA_OF_ASC_NODE":"262.1504","FILE":"3224952","LAUNCH_DATE":"2021-04-29","RCS_SIZE":"LARGE","MEAN_ELEMENT_THEORY":"SGP4","TLE_LINE1":"1 48299U 21036Z   21330.80928447 -.00000078  00000-0  13676-4 0  9998","SITE":"AFETR","GP_ID":"190558759","MEAN_ANOMALY":"291.6708","CLASSIFICATION_TYPE":"U","EPOCH":"2021-11-26T19:25:22.178208","MEAN_MOTION_DDOT":"0.0000000000000","BSTAR":"0.00001367600000","COUNTRY_CODE":"US","EPHEMERIS_TYPE":"0","ECCENTRICITY":"0.00019200","SEMIMAJOR_AXIS":"6925.356","MEAN_MOTION_DOT":"-0.00000078","OBJECT_TYPE":"PAYLOAD","CENTER_NAME":"EARTH","TIME_SYSTEM":"UTC","APOAPSIS":"548.551","ELEMENT_SET_NO":"999","REF_FRAME":"TEME","ARG_OF_PERICENTER":"68.4485","NORAD_CAT_ID":"48299","INCLINATION":"53.0575","PERIOD":"95.592","PERIAPSIS":"545.892"},{"MEAN_ELEMENT_THEORY":"SGP4","RCS_SIZE":"LARGE","LAUNCH_DATE":"2021-04-29","FILE":"3224952","RA_OF_ASC_NODE":"271.8953","TLE_LINE1":"1 48300U 21036AA  21330.86733526  .00001755  00000-0  13670-3 0  9994","SITE":"AFETR","MEAN_MOTION":"15.06398555","DECAY_DATE":null,"REV_AT_EPOCH":"3247","OBJECT_ID":"2021-036AA","TLE_LINE2":"2 48300  53.0571 271.8953 0001972  60.5853 299.5333 15.06398555 32476","OBJECT_NAME":"STARLINK-2538","EPOCH":"2021-11-26T20:48:57.766464","CLASSIFICATION_TYPE":"U","COUNTRY_CODE":"US","BSTAR":"0.00013670000000","MEAN_MOTION_DDOT":"0.0000000000000","MEAN_ANOMALY":"299.5333","GP_ID":"190559009","OBJECT_TYPE":"PAYLOAD","MEAN_MOTION_DOT":"0.00001755","CENTER_NAME":"EARTH","ECCENTRICITY":"0.00019720","EPHEMERIS_TYPE":"0","SEMIMAJOR_AXIS":"6925.353","INCLINATION":"53.0571","NORAD_CAT_ID":"48300","PERIOD":"95.592","PERIAPSIS":"545.852","ARG_OF_PERICENTER":"60.5853","REF_FRAME":"TEME","ELEMENT_SET_NO":"999","APOAPSIS":"548.584","TIME_SYSTEM":"UTC"},{"MEAN_ANOMALY":"297.8977","GP_ID":"190560255","CLASSIFICATION_TYPE":"U","EPOCH":"2021-11-26T15:57:01.977408","COUNTRY_CODE":"US","BSTAR":"0.00015483000000","MEAN_MOTION_DDOT":"0.0000000000000","MEAN_MOTION":"15.06401129","DECAY_DATE":null,"OBJECT_ID":"2021-036AB","REV_AT_EPOCH":"3243","TLE_LINE2":"2 48301  53.0544 272.7903 0002060  62.2221 297.8977 15.06401129 32432","OBJECT_NAME":"STARLINK-2537","MEAN_ELEMENT_THEORY":"SGP4","RCS_SIZE":"LARGE","FILE":"3224952","LAUNCH_DATE":"2021-04-29","RA_OF_ASC_NODE":"272.7903","TLE_LINE1":"1 48301U 21036AB  21330.66460622  .00002025  00000-0  15483-3 0  9992","SITE":"AFETR","ARG_OF_PERICENTER":"62.2221","REF_FRAME":"TEME","ELEMENT_SET_NO":"999","TIME_SYSTEM":"UTC","APOAPSIS":"548.637","INCLINATION":"53.0544","NORAD_CAT_ID":"48301","PERIOD":"95.592","PERIAPSIS":"545.783","ECCENTRICITY":"0.00020600","EPHEMERIS_TYPE":"0","SEMIMAJOR_AXIS":"6925.345","OBJECT_TYPE":"PAYLOAD","MEAN_MOTION_DOT":"0.00002025","CENTER_NAME":"EARTH"},{"BSTAR":"0.00001768400000","COUNTRY_CODE":"US","MEAN_MOTION_DDOT":"0.0000000000000","CLASSIFICATION_TYPE":"U","EPOCH":"2021-11-26T06:18:29.711232","GP_ID":"190530205","MEAN_ANOMALY":"306.5472","TLE_LINE1":"1 48302U 21036AC  21330.26284388 -.00000018  00000-0  17684-4 0  9999","SITE":"AFETR","RCS_SIZE":"LARGE","MEAN_ELEMENT_THEORY":"SGP4","RA_OF_ASC_NODE":"274.5983","LAUNCH_DATE":"2021-04-29","FILE":"3224704","OBJECT_NAME":"STARLINK-2556","TLE_LINE2":"2 48302  53.0565 274.5983 0002302  53.5729 306.5472 15.06390715 32378","MEAN_MOTION":"15.06390715","OBJECT_ID":"2021-036AC","REV_AT_EPOCH":"3237","DECAY_DATE":null,"PERIOD":"95.593","PERIAPSIS":"545.648","NORAD_CAT_ID":"48302","INCLINATION":"53.0565","REF_FRAME":"TEME","ARG_OF_PERICENTER":"53.5729","TIME_SYSTEM":"UTC","APOAPSIS":"548.836","ELEMENT_SET_NO":"999","CENTER_NAME":"EARTH","MEAN_MOTION_DOT":"-0.00000018","OBJECT_TYPE":"PAYLOAD","SEMIMAJOR_AXIS":"6925.377","EPHEMERIS_TYPE":"0","ECCENTRICITY":"0.00023020"},{"MEAN_MOTION_DDOT":"0.0000000000000","BSTAR":"0.00001542500000","COUNTRY_CODE":"US","CLASSIFICATION_TYPE":"U","EPOCH":"2021-11-26T22:08:34.857024","MEAN_ANOMALY":"295.6377","GP_ID":"190559259","TLE_LINE1":"1 48303U 21036AD  21330.92262566 -.00000052  00000-0  15425-4 0  9996","SITE":"AFETR","RA_OF_ASC_NODE":"271.6290","FILE":"3224952","LAUNCH_DATE":"2021-04-29","RCS_SIZE":"LARGE","MEAN_ELEMENT_THEORY":"SGP4","OBJECT_NAME":"STARLINK-2530","TLE_LINE2":"2 48303  53.0545 271.6290 0002075  64.4827 295.6377 15.06397052 32477","OBJECT_ID":"2021-036AD","REV_AT_EPOCH":"3247","DECAY_DATE":null,"MEAN_MOTION":"15.06397052","PERIAPSIS":"545.786","PERIOD":"95.592","NORAD_CAT_ID":"48303","INCLINATION":"53.0545","TIME_SYSTEM":"UTC","APOAPSIS":"548.660","ELEMENT_SET_NO":"999","REF_FRAME":"TEME","ARG_OF_PERICENTER":"64.4827","CENTER_NAME":"EARTH","MEAN_MOTION_DOT":"-0.00000052","OBJECT_TYPE":"PAYLOAD","SEMIMAJOR_AXIS":"6925.358","EPHEMERIS_TYPE":"0","ECCENTRICITY":"0.00020750"},{"TLE_LINE1":"1 48304U 21036AE  21330.85258691  .00001213  00000-0  10033-3 0  9991","SITE":"AFETR","RA_OF_ASC_NODE":"271.9533","LAUNCH_DATE":"2021-04-29","FILE":"3224952","RCS_SIZE":"LARGE","MEAN_ELEMENT_THEORY":"SGP4","OBJECT_NAME":"STARLINK-2524","TLE_LINE2":"2 48304  53.0558 271.9533 0002174  52.9549 307.1639 15.06395109 32468","OBJECT_ID":"2021-036AE","REV_AT_EPOCH":"3246","DECAY_DATE":null,"MEAN_MOTION":"15.06395109","MEAN_MOTION_DDOT":"0.0000000000000","BSTAR":"0.00010033000000","COUNTRY_CODE":"US","EPOCH":"2021-11-26T20:27:43.509024","CLASSIFICATION_TYPE":"U","GP_ID":"190559509","MEAN_ANOMALY":"307.1639","CENTER_NAME":"EARTH","MEAN_MOTION_DOT":"0.00001213","OBJECT_TYPE":"PAYLOAD","SEMIMAJOR_AXIS":"6925.364","EPHEMERIS_TYPE":"0","ECCENTRICITY":"0.00021740","PERIOD":"95.592","PERIAPSIS":"545.723","NORAD_CAT_ID":"48304","INCLINATION":"53.0558","TIME_SYSTEM":"UTC","APOAPSIS":"548.734","ELEMENT_SET_NO":"999","REF_FRAME":"TEME","ARG_OF_PERICENTER":"52.9549"},{"CLASSIFICATION_TYPE":"U","EPOCH":"2021-11-26T20:22:25.143168","MEAN_MOTION_DDOT":"0.0000000000000","BSTAR":"0.00002850500000","COUNTRY_CODE":"US","GP_ID":"190559756","MEAN_ANOMALY":"290.4736","RA_OF_ASC_NODE":"271.9634","FILE":"3224952","LAUNCH_DATE":"2021-04-29","RCS_SIZE":"LARGE","MEAN_ELEMENT_THEORY":"SGP4","TLE_LINE1":"1 48305U 21036AF  21330.84890212  .00000143  00000-0  28505-4 0  9997","SITE":"AFETR","OBJECT_ID":"2021-036AF","REV_AT_EPOCH":"3246","DECAY_DATE":null,"MEAN_MOTION":"15.06394734","OBJECT_NAME":"STARLINK-2519","TLE_LINE2":"2 48305  53.0558 271.9634 0001816  69.6448 290.4736 15.06394734 32461","NORAD_CAT_ID":"48305","INCLINATION":"53.0558","PERIOD":"95.592","PERIAPSIS":"545.972","APOAPSIS":"548.487","TIME_SYSTEM":"UTC","ELEMENT_SET_NO":"999","REF_FRAME":"TEME","ARG_OF_PERICENTER":"69.6448","MEAN_MOTION_DOT":"0.00000143","OBJECT_TYPE":"PAYLOAD","CENTER_NAME":"EARTH","EPHEMERIS_TYPE":"0","ECCENTRICITY":"0.00018160","SEMIMAJOR_AXIS":"6925.365"},{"NORAD_CAT_ID":"48306","INCLINATION":"53.0566","PERIOD":"95.592","PERIAPSIS":"545.829","REF_FRAME":"TEME","ARG_OF_PERICENTER":"66.5115","APOAPSIS":"548.578","TIME_SYSTEM":"UTC","ELEMENT_SET_NO":"999","MEAN_MOTION_DOT":"0.00000643","OBJECT_TYPE":"PAYLOAD","CENTER_NAME":"EARTH","EPHEMERIS_TYPE":"0","ECCENTRICITY":"0.00019850","SEMIMAJOR_AXIS":"6925.338","CLASSIFICATION_TYPE":"U","EPOCH":"2021-11-26T13:54:57.172896","BSTAR":"0.00006208800000","COUNTRY_CODE":"US","MEAN_MOTION_DDOT":"0.0000000000000","GP_ID":"190529706","MEAN_ANOMALY":"293.6082","RCS_SIZE":"LARGE","MEAN_ELEMENT_THEORY":"SGP4","RA_OF_ASC_NODE":"273.1838","LAUNCH_DATE":"2021-04-29","FILE":"3224704","TLE_LINE1":"1 48306U 21036AG  21330.57982839  .00000643  00000-0  62088-4 0  9994","SITE":"AFETR","MEAN_MOTION":"15.06403370","REV_AT_EPOCH":"3242","OBJECT_ID":"2021-036AG","DECAY_DATE":null,"OBJECT_NAME":"STARLINK-2523","TLE_LINE2":"2 48306  53.0566 273.1838 0001985  66.5115 293.6082 15.06403370 32427"},{"SEMIMAJOR_AXIS":"6925.360","ECCENTRICITY":"0.00018000","EPHEMERIS_TYPE":"0","CENTER_NAME":"EARTH","OBJECT_TYPE":"PAYLOAD","MEAN_MOTION_DOT":"0.00001513","ELEMENT_SET_NO":"999","TIME_SYSTEM":"UTC","APOAPSIS":"548.471","ARG_OF_PERICENTER":"65.2595","REF_FRAME":"TEME","PERIAPSIS":"545.978","PERIOD":"95.592","INCLINATION":"53.0547","NORAD_CAT_ID":"48307","TLE_LINE2":"2 48307  53.0547 273.1904 0001800  65.2595 294.8581 15.06396348 33014","OBJECT_NAME":"STARLINK-2528","DECAY_DATE":null,"OBJECT_ID":"2021-036AH","REV_AT_EPOCH":"3301","MEAN_MOTION":"15.06396348","SITE":"AFETR","TLE_LINE1":"1 48307U 21036AH  21330.57615007  .00001513  00000-0  12046-3 0  9990","LAUNCH_DATE":"2021-04-29","FILE":"3224776","RA_OF_ASC_NODE":"273.1904","MEAN_ELEMENT_THEORY":"SGP4","RCS_SIZE":"LARGE","GP_ID":"190533551","MEAN_ANOMALY":"294.8581","MEAN_MOTION_DDOT":"0.0000000000000","COUNTRY_CODE":"US","BSTAR":"0.00012046000000","CLASSIFICATION_TYPE":"U","EPOCH":"2021-11-26T13:49:39.366048"},{"OBJECT_ID":"2021-036AJ","REV_AT_EPOCH":"3242","DECAY_DATE":null,"MEAN_MOTION":"15.06403312","OBJECT_NAME":"STARLINK-2532","TLE_LINE2":"2 48308  53.0563 273.2136 0002040  63.8755 296.2443 15.06403312 32427","RA_OF_ASC_NODE":"273.2136","FILE":"3224704","LAUNCH_DATE":"2021-04-29","RCS_SIZE":"LARGE","MEAN_ELEMENT_THEORY":"SGP4","TLE_LINE1":"1 48308U 21036AJ  21330.57246246  .00003051  00000-0  22362-3 0  9997","SITE":"AFETR","MEAN_ANOMALY":"296.2443","GP_ID":"190531207","CLASSIFICATION_TYPE":"U","EPOCH":"2021-11-26T13:44:20.756544","MEAN_MOTION_DDOT":"0.0000000000000","BSTAR":"0.00022362000000","COUNTRY_CODE":"US","EPHEMERIS_TYPE":"0","ECCENTRICITY":"0.00020400","SEMIMAJOR_AXIS":"6925.338","MEAN_MOTION_DOT":"0.00003051","OBJECT_TYPE":"PAYLOAD","CENTER_NAME":"EARTH","TIME_SYSTEM":"UTC","APOAPSIS":"548.616","ELEMENT_SET_NO":"999","REF_FRAME":"TEME","ARG_OF_PERICENTER":"63.8755","NORAD_CAT_ID":"48308","INCLINATION":"53.0563","PERIOD":"95.592","PERIAPSIS":"545.791"}];
